ADRAS-J                 
1 58992U 24034A   24278.89717387  .00017111  00000+0  15105-2 0  9993
2 58992  98.2255 257.0831 0044784  49.8667 310.6462 14.95675392 34256
